{"type": "FeatureCollection", "features": [ {"type": "Feature", "properties": {"norad_id": 66808, "name": "STARLINK-36071", "group": "last-30-days", "lat": 35.630172314259326, "lon": -26.02728218047967, "alt_km": 377.22392253178714, "timestamp": "2025-12-20T14:38:00.689574+00:00", "meta": {"OBJECT_NAME": "STARLINK-36071", "OBJECT_ID": "2025-278T", "EPOCH": "2025-12-20T06:00:02.999808", "MEAN_MOTION": 15.63547376, "ECCENTRICITY": 0.00013663, "INCLINATION": 42.9992, "RA_OF_ASC_NODE": 206.3955, "ARG_OF_PERICENTER": 257.5579, "MEAN_ANOMALY": 357.64, "EPHEMERIS_TYPE": 0, "CLASSIFICATION_TYPE": "U", "NORAD_CAT_ID": 66808, "ELEMENT_SET_NO": 999, "REV_AT_EPOCH": 416, "BSTAR": -0.023743324, "MEAN_MOTION_DOT": -0.01991463, "MEAN_MOTION_DDOT": 0}, "tle": {"line1": "1 66808U 25278T   25354.25003472 -.01991463  00000+0 -23743-1 0  9998", "line2": "2 66808  42.9992 206.3955 0001366 257.5579 357.6400 15.63547376  4164"}}, "geometry": {"type": "Point", "coordinates": [-26.02728218047967, 35.630172314259326]}}, {"type": "Feature", "properties": {"norad_id": 66809, "name": "STARLINK-35979", "group": "last-30-days", "lat": 32.96347220346681, "lon": -19.86683847785905, "alt_km": 377.61018383185547, "timestamp": "2025-12-20T14:38:00.689584+00:00", "meta": {"OBJECT_NAME": "STARLINK-35979", "OBJECT_ID": "2025-278U", "EPOCH": "2025-12-20T06:00:02.999808", "MEAN_MOTION": 15.63549256, "ECCENTRICITY": 0.00014588, "INCLINATION": 42.999, "RA_OF_ASC_NODE": 206.3801, "ARG_OF_PERICENTER": 257.4202, "MEAN_ANOMALY": 3.5273, "EPHEMERIS_TYPE": 0, "CLASSIFICATION_TYPE": "U", "NORAD_CAT_ID": 66809, "ELEMENT_SET_NO": 999, "REV_AT_EPOCH": 416, "BSTAR": -0.023776178, "MEAN_MOTION_DOT": -0.01994083, "MEAN_MOTION_DDOT": 0}, "tle": {"line1": "1 66809U 25278U   25354.25003472 -.01994083  00000+0 -23776-1 0  9996", "line2": "2 66809  42.9990 206.3801 0001458 257.4202   3.5273 15.63549256  4161"}}, "geometry": {"type": "Point", "coordinates": [-19.86683847785905, 32.96347220346681]}}, {"type": "Feature", "properties": {"norad_id": 66810, "name": "STARLINK-36046", "group": "last-30-days", "lat": 34.77672963762759, "lon": -23.930469587705367, "alt_km": 377.3152709700189, "timestamp": "2025-12-20T14:38:00.689596+00:00", "meta": {"OBJECT_NAME": "STARLINK-36046", "OBJECT_ID": "2025-278V", "EPOCH": "2025-12-20T06:00:02.999808", "MEAN_MOTION": 15.63547161, "ECCENTRICITY": 0.00014023, "INCLINATION": 42.9995, "RA_OF_ASC_NODE": 206.3908, "ARG_OF_PERICENTER": 255.4755, "MEAN_ANOMALY": 1.6388, "EPHEMERIS_TYPE": 0, "CLASSIFICATION_TYPE": "U", "NORAD_CAT_ID": 66810, "ELEMENT_SET_NO": 999, "REV_AT_EPOCH": 393, "BSTAR": -0.023732722, "MEAN_MOTION_DOT": -0.01990694, "MEAN_MOTION_DDOT": 0}, "tle": {"line1": "1 66810U 25278V   25354.25003472 -.01990694  00000+0 -23733-1 0  9995", "line2": "2 66810  42.9995 206.3908 0001402 255.4755   1.6388 15.63547161  3939"}}, "geometry": {"type": "Point", "coordinates": [-23.930469587705367, 34.77672963762759]}}, {"type": "Feature", "properties": {"norad_id": 66811, "name": "STARLINK-36045", "group": "last-30-days", "lat": 33.88750986066191, "lon": -21.87831492834349, "alt_km": 377.4014816830695, "timestamp": "2025-12-20T14:38:00.689606+00:00", "meta": {"OBJECT_NAME": "STARLINK-36045", "OBJECT_ID": "2025-278W", "EPOCH": "2025-12-20T06:00:02.999808", "MEAN_MOTION": 15.63547074, "ECCENTRICITY": 0.0001418, "INCLINATION": 42.9993, "RA_OF_ASC_NODE": 206.3855, "ARG_OF_PERICENTER": 253.6394, "MEAN_ANOMALY": 5.391, "EPHEMERIS_TYPE": 0, "CLASSIFICATION_TYPE": "U", "NORAD_CAT_ID": 66811, "ELEMENT_SET_NO": 999, "REV_AT_EPOCH": 416, "BSTAR": -0.023724771, "MEAN_MOTION_DOT": -0.01990115, "MEAN_MOTION_DDOT": 0}, "tle": {"line1": "1 66811U 25278W   25354.25003472 -.01990115  00000+0 -23725-1 0  9995", "line2": "2 66811  42.9993 206.3855 0001418 253.6394   5.3910 15.63547074  4166"}}, "geometry": {"type": "Point", "coordinates": [-21.87831492834349, 33.88750986066191]}}, {"type": "Feature", "properties": {"norad_id": 66812, "name": "STARLINK-36054", "group": "last-30-days", "lat": 32.00874723862043, "lon": -17.897950301378977, "alt_km": 377.6496757819832, "timestamp": "2025-12-20T14:38:00.689616+00:00", "meta": {"OBJECT_NAME": "STARLINK-36054", "OBJECT_ID": "2025-278X", "EPOCH": "2025-12-20T06:00:02.999808", "MEAN_MOTION": 15.63546778, "ECCENTRICITY": 0.00013945, "INCLINATION": 42.9991, "RA_OF_ASC_NODE": 206.3759, "ARG_OF_PERICENTER": 254.8035, "MEAN_ANOMALY": 8.0612, "EPHEMERIS_TYPE": 0, "CLASSIFICATION_TYPE": "U", "NORAD_CAT_ID": 66812, "ELEMENT_SET_NO": 999, "REV_AT_EPOCH": 416, "BSTAR": -0.023707779, "MEAN_MOTION_DOT": -0.01988825, "MEAN_MOTION_DDOT": 0}, "tle": {"line1": "1 66812U 25278X   25354.25003472 -.01988825  00000+0 -23708-1 0  9992", "line2": "2 66812  42.9991 206.3759 0001394 254.8035   8.0612 15.63546778  4165"}}, "geometry": {"type": "Point", "coordinates": [-17.897950301378977, 32.00874723862043]}}, {"type": "Feature", "properties": {"norad_id": 66813, "name": "STARLINK-36042", "group": "last-30-days", "lat": 31.02272005069807, "lon": -15.9691493371378, "alt_km": 377.8138794667275, "timestamp": "2025-12-20T14:38:00.689627+00:00", "meta": {"OBJECT_NAME": "STARLINK-36042", "OBJECT_ID": "2025-278Y", "EPOCH": "2025-12-20T06:00:02.999808", "MEAN_MOTION": 15.63552492, "ECCENTRICITY": 0.00013518, "INCLINATION": 42.999, "RA_OF_ASC_NODE": 206.3706, "ARG_OF_PERICENTER": 257.3849, "MEAN_ANOMALY": 7.3958, "EPHEMERIS_TYPE": 0, "CLASSIFICATION_TYPE": "U", "NORAD_CAT_ID": 66813, "ELEMENT_SET_NO": 999, "REV_AT_EPOCH": 416, "BSTAR": -0.023822921, "MEAN_MOTION_DOT": -0.01997668, "MEAN_MOTION_DDOT": 0}, "tle": {"line1": "1 66813U 25278Y   25354.25003472 -.01997668  00000+0 -23823-1 0  9996", "line2": "2 66813  42.9990 206.3706 0001351 257.3849   7.3958 15.63552492  4166"}}, "geometry": {"type": "Point", "coordinates": [-15.9691493371378, 31.02272005069807]}}, {"type": "Feature", "properties": {"norad_id": 66814, "name": "STARLINK-35984", "group": "last-30-days", "lat": 24.581141569711413, "lon": -5.202506409838189, "alt_km": 378.6781052717124, "timestamp": "2025-12-20T14:38:00.689636+00:00", "meta": {"OBJECT_NAME": "STARLINK-35984", "OBJECT_ID": "2025-278Z", "EPOCH": "2025-12-20T06:00:02.999808", "MEAN_MOTION": 15.63545155, "ECCENTRICITY": 0.00015031, "INCLINATION": 42.9992, "RA_OF_ASC_NODE": 206.3411, "ARG_OF_PERICENTER": 256.3611, "MEAN_ANOMALY": 19.9235, "EPHEMERIS_TYPE": 0, "CLASSIFICATION_TYPE": "U", "NORAD_CAT_ID": 66814, "ELEMENT_SET_NO": 999, "REV_AT_EPOCH": 425, "BSTAR": -0.023674882, "MEAN_MOTION_DOT": -0.0198637, "MEAN_MOTION_DDOT": 0}, "tle": {"line1": "1 66814U 25278Z   25354.25003472 -.01986370  00000+0 -23675-1 0  9990", "line2": "2 66814  42.9992 206.3411 0001503 256.3611  19.9235 15.63545155  4252"}}, "geometry": {"type": "Point", "coordinates": [-5.202506409838189, 24.581141569711413]}}, {"type": "Feature", "properties": {"norad_id": 66815, "name": "STARLINK-35985", "group": "last-30-days", "lat": 25.71006955244374, "lon": -6.909859438599894, "alt_km": 378.5317358450775, "timestamp": "2025-12-20T14:38:00.689648+00:00", "meta": {"OBJECT_NAME": "STARLINK-35985", "OBJECT_ID": "2025-278AA", "EPOCH": "2025-12-20T06:00:02.999808", "MEAN_MOTION": 15.63547324, "ECCENTRICITY": 0.00014656, "INCLINATION": 42.999, "RA_OF_ASC_NODE": 206.3458, "ARG_OF_PERICENTER": 256.6697, "MEAN_ANOMALY": 17.6982, "EPHEMERIS_TYPE": 0, "CLASSIFICATION_TYPE": "U", "NORAD_CAT_ID": 66815, "ELEMENT_SET_NO": 999, "REV_AT_EPOCH": 425, "BSTAR": -0.023729241, "MEAN_MOTION_DOT": -0.01990498, "MEAN_MOTION_DDOT": 0}, "tle": {"line1": "1 66815U 25278AA  25354.25003472 -.01990498  00000+0 -23729-1 0  9997", "line2": "2 66815  42.9990 206.3458 0001465 256.6697  17.6982 15.63547324  4250"}}, "geometry": {"type": "Point", "coordinates": [-6.909859438599894, 25.71006955244374]}}, {"type": "Feature", "properties": {"norad_id": 66816, "name": "STARLINK-36098", "group": "last-30-days", "lat": 30.010610486268643, "lon": -14.083451020409006, "alt_km": 377.9609833823315, "timestamp": "2025-12-20T14:38:00.689681+00:00", "meta": {"OBJECT_NAME": "STARLINK-36098", "OBJECT_ID": "2025-278AB", "EPOCH": "2025-12-20T06:00:02.999808", "MEAN_MOTION": 15.63544469, "ECCENTRICITY": 0.00014375, "INCLINATION": 42.9992, "RA_OF_ASC_NODE": 206.3658, "ARG_OF_PERICENTER": 256.3688, "MEAN_ANOMALY": 10.3337, "EPHEMERIS_TYPE": 0, "CLASSIFICATION_TYPE": "U", "NORAD_CAT_ID": 66816, "ELEMENT_SET_NO": 999, "REV_AT_EPOCH": 400, "BSTAR": -0.023704427, "MEAN_MOTION_DOT": -0.0198845, "MEAN_MOTION_DDOT": 0}, "tle": {"line1": "1 66816U 25278AB  25354.25003472 -.01988450  00000+0 -23704-1 0  9996", "line2": "2 66816  42.9992 206.3658 0001437 256.3688  10.3337 15.63544469  4005"}}, "geometry": {"type": "Point", "coordinates": [-14.083451020409006, 30.010610486268643]}}, {"type": "Feature", "properties": {"norad_id": 66817, "name": "STARLINK-35995", "group": "last-30-days", "lat": 27.906690338431417, "lon": -10.424902867346704, "alt_km": 378.22636764086474, "timestamp": "2025-12-20T14:38:00.689693+00:00", "meta": {"OBJECT_NAME": "STARLINK-35995", "OBJECT_ID": "2025-278AC", "EPOCH": "2025-12-20T06:00:02.999808", "MEAN_MOTION": 15.63545823, "ECCENTRICITY": 0.00014294, "INCLINATION": 42.9987, "RA_OF_ASC_NODE": 206.3561, "ARG_OF_PERICENTER": 256.3744, "MEAN_ANOMALY": 14.16, "EPHEMERIS_TYPE": 0, "CLASSIFICATION_TYPE": "U", "NORAD_CAT_ID": 66817, "ELEMENT_SET_NO": 999, "REV_AT_EPOCH": 416, "BSTAR": -0.023698676, "MEAN_MOTION_DOT": -0.01988115, "MEAN_MOTION_DDOT": 0}, "tle": {"line1": "1 66817U 25278AC  25354.25003472 -.01988115  00000+0 -23699-1 0  9998", "line2": "2 66817  42.9987 206.3561 0001429 256.3744  14.1600 15.63545823  4164"}}, "geometry": {"type": "Point", "coordinates": [-10.424902867346704, 27.906690338431417]}}]}